{
    "links": {
        "self": "http://www.neowsapp.com/rest/v1/neo/3581598?api_key=iIulBulltgU6a56xZRHN4H3l9WmuAYTsLGpBGhQ2"
    },
    "id": "3581598",
    "neo_reference_id": "3581598",
    "name": "(2011 TO6)",
    "designation": "2011 TO6",
    "nasa_jpl_url": "http://ssd.jpl.nasa.gov/sbdb.cgi?sstr=3581598",
    "absolute_magnitude_h": 26.3,
    "estimated_diameter": {
        "kilometers": {
            "estimated_diameter_min": 0.0146067964,
            "estimated_diameter_max": 0.0326617897
        },
        "meters": {
            "estimated_diameter_min": 14.6067964271,
            "estimated_diameter_max": 32.6617897446
        },
        "miles": {
            "estimated_diameter_min": 0.0090762397,
            "estimated_diameter_max": 0.020295089
        },
        "feet": {
            "estimated_diameter_min": 47.92256199,
            "estimated_diameter_max": 107.1581062656
        }
    },
    "is_potentially_hazardous_asteroid": false,
    "close_approach_data": [
        {
            "close_approach_date": "2007-10-06",
            "close_approach_date_full": "2007-Oct-06 05:10",
            "epoch_date_close_approach": 1191647400000,
            "relative_velocity": {
                "kilometers_per_second": "10.1850170463",
                "kilometers_per_hour": "36666.0613667308",
                "miles_per_hour": "22782.8646309"
            },
            "miss_distance": {
                "astronomical": "0.2160028909",
                "lunar": "84.0251245601",
                "kilometers": "32313572.392482383",
                "miles": "20078722.8219395654"
            },
            "orbiting_body": "Earth"
        },
        {
            "close_approach_date": "2011-10-09",
            "close_approach_date_full": "2011-Oct-09 05:43",
            "epoch_date_close_approach": 1318138980000,
            "relative_velocity": {
                "kilometers_per_second": "6.8902438885",
                "kilometers_per_hour": "24804.8779986342",
                "miles_per_hour": "15412.7865542069"
            },
            "miss_distance": {
                "astronomical": "0.067272524",
                "lunar": "26.169011836",
                "kilometers": "10063826.29992388",
                "miles": "6253371.690074344"
            },
            "orbiting_body": "Earth"
        }
    ],
    "orbital_data": {
        "orbit_id": "4",
        "orbit_determination_date": "2017-04-06 08:52:30",
        "first_observation_date": "2011-10-03",
        "last_observation_date": "2011-10-06",
        "data_arc_in_days": 3,
        "observations_used": 14,
        "orbit_uncertainty": "8",
        "minimum_orbit_intersection": ".0670841",
        "jupiter_tisserand_invariant": "5.205",
        "epoch_osculation": "2455839.5",
        "eccentricity": ".1542230209630082",
        "semi_major_axis": "1.218130112561185",
        "inclination": "12.49504971877596",
        "ascending_node_longitude": "9.979590078717845",
        "orbital_period": "491.0649595528081",
        "perihelion_distance": "1.03026640667599",
        "perihelion_argument": "44.94516025490705",
        "aphelion_distance": "1.40599381844638",
        "perihelion_time": "2455883.671149164015",
        "mean_anomaly": "327.6181055281845",
        "mean_motion": ".7331005664257466",
        "equinox": "J2000",
        "orbit_class": {
            "orbit_class_type": "AMO",
            "orbit_class_description": "Near-Earth asteroid orbits similar to that of 1221 Amor",
            "orbit_class_range": "1.017 AU < q (perihelion) < 1.3 AU"
        }
    },
    "is_sentry_object": false
}